[{"OBJECT_NAME":"STARLINK-3310","OBJECT_ID":"2022-001AJ","EPOCH":"2026-03-09T13:45:09.156096","MEAN_MOTION":15.08839732,"ECCENTRICITY":0.0001412,"INCLINATION":53.2173,"RA_OF_ASC_NODE":179.7632,"ARG_OF_PERICENTER":72.1711,"MEAN_ANOMALY":287.9435,"EPHEMERIS_TYPE":0,"CLASSIFICATION_TYPE":"U","NORAD_CAT_ID":50835,"ELEMENT_SET_NO":999,"REV_AT_EPOCH":23024,"BSTAR":3.0092e-5,"MEAN_MOTION_DOT":1.91e-6,"MEAN_MOTION_DDOT":0},{"OBJECT_NAME":"THOR ALTAIR DEB","OBJECT_ID":"1966-026D","EPOCH":"2026-03-09T21:08:08.495232","MEAN_MOTION":14.80090516,"ECCENTRICITY":0.01273304,"INCLINATION":98.9687,"RA_OF_ASC_NODE":49.0062,"ARG_OF_PERICENTER":303.87,"MEAN_ANOMALY":55.0446,"EPHEMERIS_TYPE":0,"CLASSIFICATION_TYPE":"U","NORAD_CAT_ID":2177,"ELEMENT_SET_NO":999,"REV_AT_EPOCH":14815,"BSTAR":0.00075855056,"MEAN_MOTION_DOT":6.533e-5,"MEAN_MOTION_DDOT":0}]
